CCSDS_OMM_VERS = 2.0
CREATION_DATE  = 
ORIGINATOR     = 

OBJECT_NAME    = 2026-023D
OBJECT_ID      = 2026-023D
CENTER_NAME    = EARTH
REF_FRAME      = TEME
TIME_SYSTEM    = UTC
MEAN_ELEMENT_THEORY = SGP/SGP4

EPOCH          = 2026-02-16T15:01:30.755424
MEAN_MOTION    = 15.22392573
ECCENTRICITY   = .00190886
INCLINATION    = 96.6470
RA_OF_ASC_NODE = 123.0138
ARG_OF_PERICENTER = 200.5985
MEAN_ANOMALY   = 159.4486

EPHEMERIS_TYPE = 0
CLASSIFICATION_TYPE = U
NORAD_CAT_ID   = 67677
ELEMENT_SET_NO = 999
REV_AT_EPOCH   = 164
BSTAR          = .55807613E-3
MEAN_MOTION_DOT = .12905E-3
MEAN_MOTION_DDOT = 0

CCSDS_OMM_VERS = 2.0
CREATION_DATE  = 
ORIGINATOR     = 

OBJECT_NAME    = 2026-023E
OBJECT_ID      = 2026-023E
CENTER_NAME    = EARTH
REF_FRAME      = TEME
TIME_SYSTEM    = UTC
MEAN_ELEMENT_THEORY = SGP/SGP4

EPOCH          = 2026-02-16T15:00:37.924416
MEAN_MOTION    = 15.22500218
ECCENTRICITY   = .0018932
INCLINATION    = 96.6363
RA_OF_ASC_NODE = 123.0155
ARG_OF_PERICENTER = 199.9468
MEAN_ANOMALY   = 160.1033

EPHEMERIS_TYPE = 0
CLASSIFICATION_TYPE = U
NORAD_CAT_ID   = 67678
ELEMENT_SET_NO = 999
REV_AT_EPOCH   = 164
BSTAR          = .6223182E-3
MEAN_MOTION_DOT = .14445E-3
MEAN_MOTION_DDOT = 0

CCSDS_OMM_VERS = 2.0
CREATION_DATE  = 
ORIGINATOR     = 

OBJECT_NAME    = 2026-023F
OBJECT_ID      = 2026-023F
CENTER_NAME    = EARTH
REF_FRAME      = TEME
TIME_SYSTEM    = UTC
MEAN_ELEMENT_THEORY = SGP/SGP4

EPOCH          = 2026-02-16T14:59:12.090336
MEAN_MOTION    = 15.22629275
ECCENTRICITY   = .00208713
INCLINATION    = 96.6370
RA_OF_ASC_NODE = 125.5124
ARG_OF_PERICENTER = 194.5600
MEAN_ANOMALY   = 165.5040

EPHEMERIS_TYPE = 0
CLASSIFICATION_TYPE = U
NORAD_CAT_ID   = 67679
ELEMENT_SET_NO = 999
REV_AT_EPOCH   = 163
BSTAR          = .65573921E-3
MEAN_MOTION_DOT = .153E-3
MEAN_MOTION_DDOT = 0

CCSDS_OMM_VERS = 2.0
CREATION_DATE  = 
ORIGINATOR     = 

OBJECT_NAME    = 2026-023G
OBJECT_ID      = 2026-023G
CENTER_NAME    = EARTH
REF_FRAME      = TEME
TIME_SYSTEM    = UTC
MEAN_ELEMENT_THEORY = SGP/SGP4

EPOCH          = 2026-02-16T14:59:34.382400
MEAN_MOTION    = 15.22599872
ECCENTRICITY   = .0022486
INCLINATION    = 96.6298
RA_OF_ASC_NODE = 125.5103
ARG_OF_PERICENTER = 191.0574
MEAN_ANOMALY   = 169.0173

EPHEMERIS_TYPE = 0
CLASSIFICATION_TYPE = U
NORAD_CAT_ID   = 67680
ELEMENT_SET_NO = 999
REV_AT_EPOCH   = 163
BSTAR          = .64294329E-3
MEAN_MOTION_DOT = .15001E-3
MEAN_MOTION_DDOT = 0

CCSDS_OMM_VERS = 2.0
CREATION_DATE  = 
ORIGINATOR     = 

OBJECT_NAME    = 2026-023H
OBJECT_ID      = 2026-023H
CENTER_NAME    = EARTH
REF_FRAME      = TEME
TIME_SYSTEM    = UTC
MEAN_ELEMENT_THEORY = SGP/SGP4

EPOCH          = 2026-02-16T16:33:55.878912
MEAN_MOTION    = 15.22597278
ECCENTRICITY   = .002246
INCLINATION    = 96.6443
RA_OF_ASC_NODE = 125.5685
ARG_OF_PERICENTER = 190.0290
MEAN_ANOMALY   = 170.0504

EPHEMERIS_TYPE = 0
CLASSIFICATION_TYPE = U
NORAD_CAT_ID   = 67681
ELEMENT_SET_NO = 999
REV_AT_EPOCH   = 164
BSTAR          = .4403E-4
MEAN_MOTION_DOT = .971E-5
MEAN_MOTION_DDOT = 0

CCSDS_OMM_VERS = 2.0
CREATION_DATE  = 
ORIGINATOR     = 

OBJECT_NAME    = 2026-023J
OBJECT_ID      = 2026-023J
CENTER_NAME    = EARTH
REF_FRAME      = TEME
TIME_SYSTEM    = UTC
MEAN_ELEMENT_THEORY = SGP/SGP4

EPOCH          = 2026-02-16T14:58:54.876000
MEAN_MOTION    = 15.22663528
ECCENTRICITY   = .00226651
INCLINATION    = 96.6399
RA_OF_ASC_NODE = 125.5238
ARG_OF_PERICENTER = 187.2646
MEAN_ANOMALY   = 172.8268

EPHEMERIS_TYPE = 0
CLASSIFICATION_TYPE = U
NORAD_CAT_ID   = 67682
ELEMENT_SET_NO = 999
REV_AT_EPOCH   = 163
BSTAR          = .56503488E-3
MEAN_MOTION_DOT = .132E-3
MEAN_MOTION_DDOT = 0

CCSDS_OMM_VERS = 2.0
CREATION_DATE  = 
ORIGINATOR     = 

OBJECT_NAME    = ISS OBJECT XZ
OBJECT_ID      = 1998-067XZ
CENTER_NAME    = EARTH
REF_FRAME      = TEME
TIME_SYSTEM    = UTC
MEAN_ELEMENT_THEORY = SGP/SGP4

EPOCH          = 2026-02-16T14:13:50.937888
MEAN_MOTION    = 15.50106152
ECCENTRICITY   = .00104539
INCLINATION    = 51.6310
RA_OF_ASC_NODE = 176.5311
ARG_OF_PERICENTER = 117.2289
MEAN_ANOMALY   = 242.9766

EPHEMERIS_TYPE = 0
CLASSIFICATION_TYPE = U
NORAD_CAT_ID   = 67683
ELEMENT_SET_NO = 999
REV_AT_EPOCH   = 151
BSTAR          = .69361625E-3
MEAN_MOTION_DOT = .39552E-3
MEAN_MOTION_DDOT = 0

CCSDS_OMM_VERS = 2.0
CREATION_DATE  = 
ORIGINATOR     = 

OBJECT_NAME    = GXIBA-1
OBJECT_ID      = 1998-067YA
CENTER_NAME    = EARTH
REF_FRAME      = TEME
TIME_SYSTEM    = UTC
MEAN_ELEMENT_THEORY = SGP/SGP4

EPOCH          = 2026-02-16T14:07:14.230560
MEAN_MOTION    = 15.51069447
ECCENTRICITY   = .00121148
INCLINATION    = 51.6308
RA_OF_ASC_NODE = 176.5014
ARG_OF_PERICENTER = 110.6315
MEAN_ANOMALY   = 249.5975

EPHEMERIS_TYPE = 0
CLASSIFICATION_TYPE = U
NORAD_CAT_ID   = 67684
ELEMENT_SET_NO = 999
REV_AT_EPOCH   = 151
BSTAR          = .121779E-2
MEAN_MOTION_DOT = .72591E-3
MEAN_MOTION_DDOT = 0

CCSDS_OMM_VERS = 2.0
CREATION_DATE  = 
ORIGINATOR     = 

OBJECT_NAME    = CORAL
OBJECT_ID      = 1998-067YB
CENTER_NAME    = EARTH
REF_FRAME      = TEME
TIME_SYSTEM    = UTC
MEAN_ELEMENT_THEORY = SGP/SGP4

EPOCH          = 2026-02-16T14:12:33.621120
MEAN_MOTION    = 15.50273681
ECCENTRICITY   = .00124104
INCLINATION    = 51.6312
RA_OF_ASC_NODE = 176.5256
ARG_OF_PERICENTER = 112.8726
MEAN_ANOMALY   = 247.3574

EPHEMERIS_TYPE = 0
CLASSIFICATION_TYPE = U
NORAD_CAT_ID   = 67685
ELEMENT_SET_NO = 999
REV_AT_EPOCH   = 151
BSTAR          = .78714875E-3
MEAN_MOTION_DOT = .4529E-3
MEAN_MOTION_DDOT = 0

CCSDS_OMM_VERS = 2.0
CREATION_DATE  = 
ORIGINATOR     = 

OBJECT_NAME    = ISS OBJECT YC
OBJECT_ID      = 1998-067YC
CENTER_NAME    = EARTH
REF_FRAME      = TEME
TIME_SYSTEM    = UTC
MEAN_ELEMENT_THEORY = SGP/SGP4

EPOCH          = 2026-02-16T14:11:22.660800
MEAN_MOTION    = 15.50464751
ECCENTRICITY   = .00077959
INCLINATION    = 51.6314
RA_OF_ASC_NODE = 176.5206
ARG_OF_PERICENTER = 86.2899
MEAN_ANOMALY   = 273.8981

EPHEMERIS_TYPE = 0
CLASSIFICATION_TYPE = U
NORAD_CAT_ID   = 67686
ELEMENT_SET_NO = 999
REV_AT_EPOCH   = 151
BSTAR          = .90419849E-3
MEAN_MOTION_DOT = .52403E-3
MEAN_MOTION_DDOT = 0

CCSDS_OMM_VERS = 2.0
CREATION_DATE  = 
ORIGINATOR     = 

OBJECT_NAME    = LEOPARD
OBJECT_ID      = 1998-067YD
CENTER_NAME    = EARTH
REF_FRAME      = TEME
TIME_SYSTEM    = UTC
MEAN_ELEMENT_THEORY = SGP/SGP4

EPOCH          = 2026-02-16T14:13:05.646144
MEAN_MOTION    = 15.50202460
ECCENTRICITY   = .00078817
INCLINATION    = 51.6315
RA_OF_ASC_NODE = 176.5282
ARG_OF_PERICENTER = 88.7578
MEAN_ANOMALY   = 271.4314

EPHEMERIS_TYPE = 0
CLASSIFICATION_TYPE = U
NORAD_CAT_ID   = 67687
ELEMENT_SET_NO = 999
REV_AT_EPOCH   = 143
BSTAR          = .73551608E-3
MEAN_MOTION_DOT = .42089E-3
MEAN_MOTION_DDOT = 0

CCSDS_OMM_VERS = 2.0
CREATION_DATE  = 
ORIGINATOR     = 

OBJECT_NAME    = ISS OBJECT YE
OBJECT_ID      = 1998-067YE
CENTER_NAME    = EARTH
REF_FRAME      = TEME
TIME_SYSTEM    = UTC
MEAN_ELEMENT_THEORY = SGP/SGP4

EPOCH          = 2026-02-16T14:11:49.200288
MEAN_MOTION    = 15.50378681
ECCENTRICITY   = .00077765
INCLINATION    = 51.6318
RA_OF_ASC_NODE = 176.5235
ARG_OF_PERICENTER = 87.0684
MEAN_ANOMALY   = 273.1194

EPHEMERIS_TYPE = 0
CLASSIFICATION_TYPE = U
NORAD_CAT_ID   = 67688
ELEMENT_SET_NO = 999
REV_AT_EPOCH   = 143
BSTAR          = .82336552E-3
MEAN_MOTION_DOT = .47501E-3
MEAN_MOTION_DDOT = 0

